{"type": "FeatureCollection", "features": [ {"type": "Feature", "properties": {"norad_id": 37533, "name": "COSMOS 2251 DEB", "group": "cosmos-2251-debris", "lat": -52.48262680181563, "lon": 13.07997199408768, "alt_km": 746.1078152374021, "timestamp": "2025-12-24T09:46:31.402878+00:00", "meta": {"OBJECT_NAME": "COSMOS 2251 DEB", "OBJECT_ID": "1993-036BNN", "EPOCH": "2025-12-17T06:38:38.162976", "MEAN_MOTION": 14.12190824, "ECCENTRICITY": 0.0157786, "INCLINATION": 74.0692, "RA_OF_ASC_NODE": 183.8069, "ARG_OF_PERICENTER": 239.4795, "MEAN_ANOMALY": 119.0691, "EPHEMERIS_TYPE": 0, "CLASSIFICATION_TYPE": "U", "NORAD_CAT_ID": 37533, "ELEMENT_SET_NO": 999, "REV_AT_EPOCH": 62985, "BSTAR": 0.0010470743, "MEAN_MOTION_DOT": 2.138e-05, "MEAN_MOTION_DDOT": 0}, "tle": {"line1": "1 37533U 93036BNN 25351.27683059  .00002138  00000+0  10471-2 0  9996", "line2": "2 37533  74.0692 183.8069 0157786 239.4795 119.0691 14.12190824629858"}}, "geometry": {"type": "Point", "coordinates": [13.07997199408768, -52.48262680181563]}}, {"type": "Feature", "properties": {"norad_id": 37535, "name": "COSMOS 2251 DEB", "group": "cosmos-2251-debris", "lat": -56.134687125602035, "lon": 26.001414014812635, "alt_km": 711.7859892785173, "timestamp": "2025-12-24T09:46:31.402888+00:00", "meta": {"OBJECT_NAME": "COSMOS 2251 DEB", "OBJECT_ID": "1993-036BNQ", "EPOCH": "2025-12-23T21:41:21.541920", "MEAN_MOTION": 14.58525146, "ECCENTRICITY": 0.0027193, "INCLINATION": 74.0231, "RA_OF_ASC_NODE": 52.2322, "ARG_OF_PERICENTER": 189.4635, "MEAN_ANOMALY": 347.4758, "EPHEMERIS_TYPE": 0, "CLASSIFICATION_TYPE": "U", "NORAD_CAT_ID": 37535, "ELEMENT_SET_NO": 999, "REV_AT_EPOCH": 85487, "BSTAR": 0.00067961, "MEAN_MOTION_DOT": 3.146e-05, "MEAN_MOTION_DDOT": 0}, "tle": {"line1": "1 37535U 93036BNQ 25357.90372155  .00003146  00000+0  67961-3 0  9993", "line2": "2 37535  74.0231  52.2322 0027193 189.4635 347.4758 14.58525146854877"}}, "geometry": {"type": "Point", "coordinates": [26.001414014812635, -56.134687125602035]}}, {"type": "Feature", "properties": {"norad_id": 37537, "name": "COSMOS 2251 DEB", "group": "cosmos-2251-debris", "lat": -29.34965909939169, "lon": -125.65314848666833, "alt_km": 749.5326759704385, "timestamp": "2025-12-24T09:46:31.402898+00:00", "meta": {"OBJECT_NAME": "COSMOS 2251 DEB", "OBJECT_ID": "1993-036BNS", "EPOCH": "2025-12-23T00:30:43.344864", "MEAN_MOTION": 14.37504728, "ECCENTRICITY": 0.00507516, "INCLINATION": 74.0118, "RA_OF_ASC_NODE": 246.178, "ARG_OF_PERICENTER": 23.6925, "MEAN_ANOMALY": 336.6549, "EPHEMERIS_TYPE": 0, "CLASSIFICATION_TYPE": "U", "NORAD_CAT_ID": 37537, "ELEMENT_SET_NO": 999, "REV_AT_EPOCH": 85181, "BSTAR": 0.00019410826, "MEAN_MOTION_DOT": 5.64e-06, "MEAN_MOTION_DDOT": 0}, "tle": {"line1": "1 37537U 93036BNS 25357.02133501  .00000564  00000+0  19411-3 0  9996", "line2": "2 37537  74.0118 246.1780 0050751  23.6925 336.6549 14.37504728851811"}}, "geometry": {"type": "Point", "coordinates": [-125.65314848666833, -29.34965909939169]}}, {"type": "Feature", "properties": {"norad_id": 37546, "name": "COSMOS 2251 DEB", "group": "cosmos-2251-debris", "lat": 58.620220838577474, "lon": 102.99723987225157, "alt_km": 616.770403278817, "timestamp": "2025-12-24T09:46:31.402909+00:00", "meta": {"OBJECT_NAME": "COSMOS 2251 DEB", "OBJECT_ID": "1993-036BPB", "EPOCH": "2025-12-22T05:36:41.418144", "MEAN_MOTION": 14.80847243, "ECCENTRICITY": 0.00051432, "INCLINATION": 74.0225, "RA_OF_ASC_NODE": 79.2675, "ARG_OF_PERICENTER": 73.5105, "MEAN_ANOMALY": 286.6636, "EPHEMERIS_TYPE": 0, "CLASSIFICATION_TYPE": "U", "NORAD_CAT_ID": 37546, "ELEMENT_SET_NO": 999, "REV_AT_EPOCH": 66028, "BSTAR": 0.0026855013, "MEAN_MOTION_DOT": 0.00020767, "MEAN_MOTION_DDOT": 0}, "tle": {"line1": "1 37546U 93036BPB 25356.23381271  .00020767  00000+0  26855-2 0  9993", "line2": "2 37546  74.0225  79.2675 0005143  73.5105 286.6636 14.80847243660287"}}, "geometry": {"type": "Point", "coordinates": [102.99723987225157, 58.620220838577474]}}, {"type": "Feature", "properties": {"norad_id": 37959, "name": "COSMOS 2251 DEB", "group": "cosmos-2251-debris", "lat": 28.498721072244734, "lon": 43.666362090913786, "alt_km": 730.4675728489146, "timestamp": "2025-12-24T09:46:31.402920+00:00", "meta": {"OBJECT_NAME": "COSMOS 2251 DEB", "OBJECT_ID": "1993-036BPJ", "EPOCH": "2025-12-22T13:53:21.860736", "MEAN_MOTION": 14.58199594, "ECCENTRICITY": 0.00571783, "INCLINATION": 74.0084, "RA_OF_ASC_NODE": 38.1929, "ARG_OF_PERICENTER": 178.962, "MEAN_ANOMALY": 335.9914, "EPHEMERIS_TYPE": 0, "CLASSIFICATION_TYPE": "U", "NORAD_CAT_ID": 37959, "ELEMENT_SET_NO": 999, "REV_AT_EPOCH": 80270, "BSTAR": 0.00056222313, "MEAN_MOTION_DOT": 2.624e-05, "MEAN_MOTION_DDOT": 0}, "tle": {"line1": "1 37959U 93036BPJ 25356.57872524  .00002624  00000+0  56222-3 0  9998", "line2": "2 37959  74.0084  38.1929 0057178 178.9620 335.9914 14.58199594802707"}}, "geometry": {"type": "Point", "coordinates": [43.666362090913786, 28.498721072244734]}}, {"type": "Feature", "properties": {"norad_id": 37960, "name": "COSMOS 2251 DEB", "group": "cosmos-2251-debris", "lat": -55.82985929386656, "lon": 141.54565080490772, "alt_km": 955.1939720629725, "timestamp": "2025-12-24T09:46:31.402930+00:00", "meta": {"OBJECT_NAME": "COSMOS 2251 DEB", "OBJECT_ID": "1993-036BPK", "EPOCH": "2025-12-23T05:04:36.493536", "MEAN_MOTION": 14.07887566, "ECCENTRICITY": 0.02481157, "INCLINATION": 74.0591, "RA_OF_ASC_NODE": 168.5402, "ARG_OF_PERICENTER": 184.7073, "MEAN_ANOMALY": 175.1734, "EPHEMERIS_TYPE": 0, "CLASSIFICATION_TYPE": "U", "NORAD_CAT_ID": 37960, "ELEMENT_SET_NO": 999, "REV_AT_EPOCH": 77553, "BSTAR": 0.0007466601, "MEAN_MOTION_DOT": 1.655e-05, "MEAN_MOTION_DDOT": 0}, "tle": {"line1": "1 37960U 93036BPK 25357.21153349  .00001655  00000+0  74666-3 0  9994", "line2": "2 37960  74.0591 168.5402 0248115 184.7073 175.1734 14.07887566775537"}}, "geometry": {"type": "Point", "coordinates": [141.54565080490772, -55.82985929386656]}}, {"type": "Feature", "properties": {"norad_id": 37961, "name": "COSMOS 2251 DEB", "group": "cosmos-2251-debris", "lat": 74.01394347775953, "lon": -157.76795027311562, "alt_km": 698.2308373739825, "timestamp": "2025-12-24T09:46:31.402941+00:00", "meta": {"OBJECT_NAME": "COSMOS 2251 DEB", "OBJECT_ID": "1993-036BPL", "EPOCH": "2025-12-13T03:18:27.462240", "MEAN_MOTION": 14.57979799, "ECCENTRICITY": 0.00406759, "INCLINATION": 74.0407, "RA_OF_ASC_NODE": 136.3488, "ARG_OF_PERICENTER": 216.8805, "MEAN_ANOMALY": 142.9561, "EPHEMERIS_TYPE": 0, "CLASSIFICATION_TYPE": "U", "NORAD_CAT_ID": 37961, "ELEMENT_SET_NO": 999, "REV_AT_EPOCH": 80071, "BSTAR": 0.001729191, "MEAN_MOTION_DOT": 8.011e-05, "MEAN_MOTION_DDOT": 0}, "tle": {"line1": "1 37961U 93036BPL 25347.13781785  .00008011  00000+0  17292-2 0  9990", "line2": "2 37961  74.0407 136.3488 0040675 216.8805 142.9561 14.57979799800716"}}, "geometry": {"type": "Point", "coordinates": [-157.76795027311562, 74.01394347775953]}}, {"type": "Feature", "properties": {"norad_id": 37966, "name": "COSMOS 2251 DEB", "group": "cosmos-2251-debris", "lat": -6.781834768048855, "lon": -155.69416760674764, "alt_km": 526.9764144908277, "timestamp": "2025-12-24T09:46:31.402951+00:00", "meta": {"OBJECT_NAME": "COSMOS 2251 DEB", "OBJECT_ID": "1993-036BPR", "EPOCH": "2025-12-13T08:51:38.421216", "MEAN_MOTION": 15.12745257, "ECCENTRICITY": 0.0008827, "INCLINATION": 73.9781, "RA_OF_ASC_NODE": 229.2381, "ARG_OF_PERICENTER": 105.5668, "MEAN_ANOMALY": 254.6501, "EPHEMERIS_TYPE": 0, "CLASSIFICATION_TYPE": "U", "NORAD_CAT_ID": 37966, "ELEMENT_SET_NO": 999, "REV_AT_EPOCH": 85352, "BSTAR": 0.0033929269, "MEAN_MOTION_DOT": 0.00060007, "MEAN_MOTION_DDOT": 0}, "tle": {"line1": "1 37966U 93036BPR 25347.36919469  .00060007  00000+0  33929-2 0  9990", "line2": "2 37966  73.9781 229.2381 0008827 105.5668 254.6501 15.12745257853526"}}, "geometry": {"type": "Point", "coordinates": [-155.69416760674764, -6.781834768048855]}}, {"type": "Feature", "properties": {"norad_id": 37967, "name": "COSMOS 2251 DEB", "group": "cosmos-2251-debris", "lat": -23.65292304203186, "lon": -57.02043237624327, "alt_km": 687.8101461296883, "timestamp": "2025-12-24T09:46:31.402962+00:00", "meta": {"OBJECT_NAME": "COSMOS 2251 DEB", "OBJECT_ID": "1993-036BPS", "EPOCH": "2025-12-23T17:48:57.484800", "MEAN_MOTION": 14.40634193, "ECCENTRICITY": 0.01510703, "INCLINATION": 74.0162, "RA_OF_ASC_NODE": 116.9992, "ARG_OF_PERICENTER": 253.4566, "MEAN_ANOMALY": 104.995, "EPHEMERIS_TYPE": 0, "CLASSIFICATION_TYPE": "U", "NORAD_CAT_ID": 37967, "ELEMENT_SET_NO": 999, "REV_AT_EPOCH": 64894, "BSTAR": 0.0018561485, "MEAN_MOTION_DOT": 6.756e-05, "MEAN_MOTION_DDOT": 0}, "tle": {"line1": "1 37967U 93036BPS 25357.74233200  .00006756  00000+0  18561-2 0  9992", "line2": "2 37967  74.0162 116.9992 0151070 253.4566 104.9950 14.40634193648940"}}, "geometry": {"type": "Point", "coordinates": [-57.02043237624327, -23.65292304203186]}}, {"type": "Feature", "properties": {"norad_id": 37968, "name": "COSMOS 2251 DEB", "group": "cosmos-2251-debris", "lat": 2.341089085362166, "lon": -111.96176057676408, "alt_km": 510.75695243379596, "timestamp": "2025-12-24T09:46:31.402972+00:00", "meta": {"OBJECT_NAME": "COSMOS 2251 DEB", "OBJECT_ID": "1993-036BPT", "EPOCH": "2025-12-21T00:10:33.901248", "MEAN_MOTION": 15.00806785, "ECCENTRICITY": 0.00805513, "INCLINATION": 74.0006, "RA_OF_ASC_NODE": 254.2977, "ARG_OF_PERICENTER": 7.8808, "MEAN_ANOMALY": 352.3622, "EPHEMERIS_TYPE": 0, "CLASSIFICATION_TYPE": "U", "NORAD_CAT_ID": 37968, "ELEMENT_SET_NO": 999, "REV_AT_EPOCH": 60343, "BSTAR": 0.00064941669, "MEAN_MOTION_DOT": 8.807e-05, "MEAN_MOTION_DDOT": 0}, "tle": {"line1": "1 37968U 93036BPT 25355.00733682  .00008807  00000+0  64942-3 0  9993", "line2": "2 37968  74.0006 254.2977 0080551   7.8808 352.3622 15.00806785603437"}}, "geometry": {"type": "Point", "coordinates": [-111.96176057676408, 2.341089085362166]}}]}